[{"OBJECT_NAME":"LYNK TOWER 4","OBJECT_ID":"2023-001AB","EPOCH":"2026-03-09T16:15:30.644928","MEAN_MOTION":15.31819885,"ECCENTRICITY":0.00103213,"INCLINATION":97.3324,"RA_OF_ASC_NODE":128.594,"ARG_OF_PERICENTER":112.3386,"MEAN_ANOMALY":247.895,"EPHEMERIS_TYPE":0,"CLASSIFICATION_TYPE":"U","NORAD_CAT_ID":55034,"ELEMENT_SET_NO":999,"REV_AT_EPOCH":17658,"BSTAR":0.00030013829,"MEAN_MOTION_DOT":9.16e-5,"MEAN_MOTION_DDOT":0},{"OBJECT_NAME":"STARLINK-34824","OBJECT_ID":"2025-161AD","EPOCH":"2026-03-09T21:26:00.314880","MEAN_MOTION":15.30184122,"ECCENTRICITY":9.551e-5,"INCLINATION":53.1586,"RA_OF_ASC_NODE":293.0639,"ARG_OF_PERICENTER":62.7634,"MEAN_ANOMALY":297.3464,"EPHEMERIS_TYPE":0,"CLASSIFICATION_TYPE":"U","NORAD_CAT_ID":65042,"ELEMENT_SET_NO":999,"REV_AT_EPOCH":3426,"BSTAR":0.00026940354,"MEAN_MOTION_DOT":7.624e-5,"MEAN_MOTION_DDOT":0}]
